ORBCOMM FM20 [+]        
1 25416U 98046D   24041.85296626  .00002245  00000+0  83215-3 0  9994
2 25416  44.9965 348.4161 0001942 309.7967  50.2708 14.34870166333530
ORBCOMM FM16 [-]        
1 25417U 98046E   24041.86860102  .00003510  00000+0  12515-2 0  9992
2 25417  44.9957 344.7400 0005341 335.8123  24.2473 14.35722005333649
ORBCOMM FM15 [-]        
1 25418U 98046F   24040.97349677  .00002586  00000+0  94013-3 0  9999
2 25418  44.9990 352.8212 0004927 331.4321  28.6255 14.35457453333300
ORBCOMM FM14 [-]        
1 25419U 98046G   24041.24358917  .00003327  00000+0  11918-2 0  9994
2 25419  44.9981 350.7720 0003894 322.9644 177.3402 14.35599067333299
ORBCOMM FM13 [+]        
1 25420U 98046H   24041.21954363  .00002525  00000+0  92789-3 0  9995
2 25420  44.9999 355.2792 0006141 320.0224  40.0170 14.34961821332365
ORBCOMM FM21 [-]        
1 25475U 98053A   24041.09792907  .00001685  00000+0  63632-3 0  9994
2 25475  45.0091  80.0605 0002672 266.6517  93.4024 14.34934958326365
ORBCOMM FM22 [-]        
1 25476U 98053B   24041.45430198  .00002556  00000+0  93085-3 0  9999
2 25476  45.0080  76.0067 0004426 269.3532  90.6808 14.35385363326402
ORBCOMM FM23 [-]        
1 25477U 98053C   24041.47627192  .00002295  00000+0  84815-3 0  9995
2 25477  45.0093  80.7242 0003700 266.6098  93.4326 14.34954702326566
